{
    "links": {
        "self": "http://www.neowsapp.com/rest/v1/neo/3781249?api_key=iIulBulltgU6a56xZRHN4H3l9WmuAYTsLGpBGhQ2"
    },
    "id": "3781249",
    "neo_reference_id": "3781249",
    "name": "(2017 QK33)",
    "designation": "2017 QK33",
    "nasa_jpl_url": "http://ssd.jpl.nasa.gov/sbdb.cgi?sstr=3781249",
    "absolute_magnitude_h": 24.5,
    "estimated_diameter": {
        "kilometers": {
            "estimated_diameter_min": 0.0334622374,
            "estimated_diameter_max": 0.0748238376
        },
        "meters": {
            "estimated_diameter_min": 33.4622374455,
            "estimated_diameter_max": 74.8238376074
        },
        "miles": {
            "estimated_diameter_min": 0.0207924639,
            "estimated_diameter_max": 0.0464933628
        },
        "feet": {
            "estimated_diameter_min": 109.7842471007,
            "estimated_diameter_max": 245.4850393757
        }
    },
    "is_potentially_hazardous_asteroid": false,
    "close_approach_data": [
        {
            "close_approach_date": "2017-08-15",
            "close_approach_date_full": "2017-Aug-15 02:33",
            "epoch_date_close_approach": 1502764380000,
            "relative_velocity": {
                "kilometers_per_second": "7.1218502153",
                "kilometers_per_hour": "25638.6607751748",
                "miles_per_hour": "15930.8667466635"
            },
            "miss_distance": {
                "astronomical": "0.1294215349",
                "lunar": "50.3449770761",
                "kilometers": "19361185.953170663",
                "miles": "12030483.0903866294"
            },
            "orbiting_body": "Earth"
        }
    ],
    "orbital_data": {
        "orbit_id": "1",
        "orbit_determination_date": "2017-08-30 12:12:05",
        "first_observation_date": "2017-08-26",
        "last_observation_date": "2017-08-30",
        "data_arc_in_days": 4,
        "observations_used": 12,
        "orbit_uncertainty": "9",
        "minimum_orbit_intersection": ".111901",
        "jupiter_tisserand_invariant": "3.535",
        "epoch_osculation": "2457992.5",
        "eccentricity": ".4828674160087686",
        "semi_major_axis": "2.154575264577727",
        "inclination": "6.510671379314188",
        "ascending_node_longitude": "157.7576232425319",
        "orbital_period": "1155.156779684994",
        "perihelion_distance": "1.114201073974671",
        "perihelion_argument": "151.6385239351327",
        "aphelion_distance": "3.194949455180783",
        "perihelion_time": "2457971.417726762509",
        "mean_anomaly": "6.570206312225785",
        "mean_motion": ".3116460088631175",
        "equinox": "J2000",
        "orbit_class": {
            "orbit_class_type": "AMO",
            "orbit_class_description": "Near-Earth asteroid orbits similar to that of 1221 Amor",
            "orbit_class_range": "1.017 AU < q (perihelion) < 1.3 AU"
        }
    },
    "is_sentry_object": false
}